[Satellite]
VERSION=1.1
NAME=GLOBALSTAR M079
NICKNAME=GLOBALSTAR M079
TLE1=1 37188U 10054A   15055.16517218 -.00000088  00000-0  87952-4 0  9996
TLE2=2 37188  52.0035  84.1257 0000332 139.8818 261.0019 12.62269475201531
